C/2018 R4 (Fuls),e,11.6837,298.4349,345.2591,326.1011,0.0001674,0.99474809,0.0000,03/03.6785/2018,2000,g 14.0,4.0
# From MPC114603
C/2018 R5 (Lemmon),e,103.7484,171.1333,178.0393,22.78793,0.0090604,0.84103660,5.6627,09/26.0/2020,2000,g 11.5,4.0
# From MPC119996
C/2018 U1 (Lemmon),h,11/02.7911/2021,108.3011,75.4776,180.4230,1.000896,4.993651,2000,5.0,4.0
# From MPC114604
C/2018 V1 (Machholz-Fujikawa-Iwamoto),h,12/03.3928/2018,144.0536,128.8785,88.8346,1.000375,0.385866,2000,12.0,4.0
# From MPC115884
C/2018 V2 (ATLAS),e,159.1596,357.0235,318.9462,25.31825,0.0077367,0.90209438,5.1783,09/26.0/2020,2000,g 15.0,4.0
# From MPC114604
P/2018 VN2 (Leonard),e,18.2477,226.5247,138.7308,4.064843,0.1202648,0.47834234,101.4400,09/26.0/2020,2000,g 15.0,4.0
# From MPC117070
A/2018 V3,e,164.9780,308.6567,3.5055,121.0200,0.0007403,0.98892884,0.0000,09/08.6779/2019,2000,g 15.7,2.0
# From MPC114604
C/2018 V4 (Africano),e,69.0031,78.3727,359.9559,207.7963,0.0003290,0.98461074,0.0000,03/01.4701/2019,2000,g 12.5,4.0
# From MPC114604
P/2018 V5 (Trujillo-Sheppard),e,10.5839,171.2926,260.7156,8.954537,0.0367823,0.47453309,26.6337,09/26.0/2020,2000,g 12.5,4.0
# From MPC115884
C/2018 W1 (Catalina),e,83.2591,233.5915,251.2534,21.74206,0.0097219,0.93742182,4.8923,09/26.0/2020,2000,g 15.7,2.0
# From MPC119996
C/2018 W2 (Africano),h,09/05.6908/2019,116.6169,181.8538,157.9753,1.000519,1.454845,2000,9.5,4.0
# From MPC119996
C/2018 X2 (Fitzsimmons),e,23.0694,340.8276,162.0601,149.3606,0.0005399,0.98576348,0.0000,07/08.4918/2019,2000,g 12.0,4.0
# From MPC114604
C/2018 X3 (PANSTARRS),e,43.3696,78.9146,359.7712,12.38404,0.0226157,0.78220157,14.3702,09/26.0/2020,2000,g 14.5,4.0
# From MPC118842
C/2018 Y1 (Iwamoto),e,160.4007,147.5076,358.0359,142.4966,0.0005794,0.99097762,0.0000,02/07.0344/2019,2000,g 11.5,4.0
# From MPC114605
P/2018 Y2 (Africano),e,11.6828,297.2672,162.3890,7.464707,0.0483265,0.47867439,30.5949,09/26.0/2020,2000,g 11.5,4.0
# From MPC114605
P/2019 A1 (PANSTARRS),e,13.7442,312.3028,150.8081,5.124285,0.0849677,0.56839260,60.8549,09/26.0/2020,2000,g 16.0,4.0
# From MPC114605
P/2019 A2 (ATLAS),e,14.8604,139.4671,324.1049,5.724608,0.0719590,0.38138049,48.5901,09/26.0/2020,2000,g 10.5,4.0
# From MPC114605
P/2019 A3 (PANSTARRS),e,15.3658,31.3082,325.4824,3.147129,0.1765356,0.26541705,138.7451,09/26.0/2020,2000,g 16.0,4.0
# From MPC114605
P/2019 A4 (PANSTARRS),e,13.3209,119.2992,341.7086,2.613560,0.2332681,0.08900527,154.3162,09/26.0/2020,2000,g 15.0,4.0
# From MPC118842
C/2019 A5 (PANSTARRS),e,67.5554,146.6244,355.9951,21.60298,0.0098160,0.70728955,4.6637,09/26.0/2020,2000,g  9.5,4.0
# From MPC114605
P/2019 A6 (Lemmon-PANSTARRS),e,33.2296,280.2718,156.2290,5.364320,0.0793290,0.63892742,60.1994,09/26.0/2020,2000,g 16.0,4.0
# From MPC114605
P/2019 A7 (PANSTARRS),e,17.7744,280.5235,119.2887,3.185860,0.1733261,0.16105241,172.0724,09/26.0/2020,2000,g 13.5,4.0
# From MPC115884
P/2019 A8 (PANSTARRS),e,3.0290,127.5823,22.1779,3.363979,0.1597438,0.44701347,119.3774,09/26.0/2020,2000,g 16.0,4.0
# From MPC118842
C/2019 A9 (PANSTARRS),e,84.2505,278.3835,237.9569,40.01381,0.0038939,0.96426060,1.6641,09/26.0/2020,2000,g 15.0,4.0
# From MPC114606
C/2019 B1 (Africano),e,123.3634,290.4360,174.8528,147.9207,0.0005478,0.98920590,0.0000,03/19.8314/2019,2000,g 16.0,4.0
# From MPC115885
P/2019 B2 (Groeller),e,16.8280,176.3785,359.0103,3.859302,0.1299993,0.37323166,61.7836,09/26.0/2020,2000,g 14.5,4.0
# From MPC115885
C/2019 B3 (PANSTARRS),h,01/19.8528/2021,66.5381,358.4263,263.8949,1.002666,6.823674,2000,5.5,4.0
# From MPEC 2020-AA5
C/2019 C1,e,36.0213,212.3912,319.1934,780.6253,0.0000452,0.99156935,0.0000,05/05.6997/2020,2000,g 10.0,4.0
# From MPC118842
C/2019 D1 (Flewelling),e,34.0874,231.7188,70.5093,140.7220,0.0005904,0.98878386,0.0000,05/11.8769/2019,2000,g 13.0,4.0
# From MPC119997
C/2019 E3 (ATLAS),h,11/12.2240/2023,84.2885,347.2357,280.6019,1.004353,10.315319,2000,2.5,4.0
# From MPC119997
C/2019 F1 (ATLAS-Africano),h,06/22.7656/2021,54.1758,38.7263,251.1129,1.003559,3.595815,2000,5.5,4.0
# From MPC119997
C/2019 F2 (ATLAS),e,19.1894,175.7877,11.1212,16.67717,0.0144717,0.86600344,5.5410,09/26.0/2020,2000,g 12.0,4.0
# From MPEC 2020-AA5
A/2019 G2,e,159.2093,208.1503,82.6432,695.9065,0.0000537,0.99670779,0.0000,12/10.0256/2019,2000,g 16.5,2.0
# From MPC118094
A/2019 G4,h,09/15.9511/2018,138.3860,130.4643,287.8842,1.001264,5.858671,2000,13.0,2.0
# From MPC114607
P/2019 GG21 (PANSTARRS),e,6.0837,340.5867,208.4409,7.470369,0.0482715,0.47298996,24.3493,09/26.0/2020,2000,g 12.0,4.0
# From MPC115885
C/2019 H1 (NEOWISE),e,104.5755,269.1906,19.3105,232.4010,0.0002782,0.99205865,0.0000,04/27.7761/2019,2000,g 15.5,4.0
# From MPC118842
C/2019 J1 (Lemmon),e,24.5505,98.0889,167.7830,69.89387,0.0016867,0.96453051,0.9037,09/26.0/2020,2000,g 12.0,4.0
# From MPC115885
C/2019 J2 (Palomar),e,105.1439,25.4748,98.7122,675.1141,0.0000562,0.99744164,0.0000,07/19.7077/2019,2000,g 13.0,4.0
# From MPC117071
C/2019 J3 (ATLAS),h,08/01.9201/2019,131.4132,270.5211,16.5699,1.000117,2.373990,2000,13.5,4.0
# From MPC117071
C/2019 JU6 (ATLAS),e,148.2991,21.7392,94.8896,332.8781,0.0001623,0.99385506,0.0000,05/31.8754/2019,2000,g 14.5,4.0
# From MPC119997
C/2019 K1 (ATLAS),e,87.1465,73.3768,265.7114,121340,0.0000000,0.99998341,0.0000,02/12.9779/2020,2000,g 10.0,4.0
# From MPC119997
C/2019 K4 (Ye),e,105.3027,180.1639,139.7743,1691,0.0000142,0.99866377,0.0000,06/16.3599/2019,2000,g 12.5,4.0
# From MPC119997
C/2019 K5 (Young),e,15.3147,177.1700,174.9527,156.2185,0.0005048,0.98697155,0.0000,06/22.8268/2019,2000,g 13.0,4.0
# From MPC117071
A/2019 K6,e,132.3757,42.9410,187.6236,1595,0.0000155,0.99753717,0.0000,05/20.2146/2020,2000,g 13.6,2.0
# From MPC118095
C/2019 K7 (Smith),h,06/16.9596/2020,103.5393,307.9291,27.3032,1.000338,4.474974,2000,6.2,4.0
# From MPC119997
C/2019 K8 (ATLAS),e,93.2227,291.0446,85.3700,2060,0.0000105,0.99844887,0.0000,07/21.3402/2019,2000,g 11.5,4.0
# From MPC118095
C/2019 L1 (PANSTARRS),e,9.9931,254.4100,49.9451,9.834680,0.0319568,0.70605690,13.1552,09/26.0/2020,2000,g 13.5,4.0
# From MPC115886
C/2019 L2 (NEOWISE),e,152.1799,12.5851,18.7429,24.86349,0.0079499,0.93484777,4.3180,09/26.0/2020,2000,g 16.0,4.0
# From MPC119997
C/2019 L3 (ATLAS),h,01/09.7501/2022,48.3662,290.7845,171.6435,1.000789,3.553796,2000,4.5,4.0
# From MPC118095
C/2019 LB7 (Kleyna),e,164.2860,3.7988,336.4615,35.21352,0.0047167,0.92942206,2.5882,09/26.0/2020,2000,g 17.0,4.0
# From MPEC 2020-N31
P/2019 LD2 (ATLAS),e,11.5683,179.6639,123.4256,5.283616,0.0811535,0.13355577,13.7613,09/26.0/2020,2000,g  8.5,4.0
# From MPEC 2020-N31
C/2019 L3 (ATLAS),h,01/09.7967/2022,48.3663,290.7848,171.6438,1.000713,3.553935,2000,4.5,4.0
# From MPEC 2020-N31
P/2019 LM4 (Palomar),e,36.3928,72.8595,68.3858,5.716992,0.0721029,0.58506263,33.5837,09/26.0/2020,2000,g  9.5,4.0
# From MPEC 2020-N31
C/2019 N1 (ATLAS),e,82.4269,13.5734,193.4463,19906,0.0000004,0.99991437,0.0000,12/01.8040/2020,2000,g  7.5,4.0
# From MPEC 2020-N31
A/2019 O2,e,93.2863,48.3268,129.6488,57.37689,0.0022678,0.83123030,357.9058,09/26.0/2020,2000,g  9.5,2.0
# From MPEC 2020-N31
A/2019 O3,h,03/07.5355/2021,89.8149,300.3804,60.0257,1.001813,8.819590,2000,10.5,2.0
# From MPEC 2020-N31
A/2019 O4,e,115.0856,354.9196,61.8229,32.85660,0.0052332,0.88907424,1.1984,09/26.0/2020,2000,g 15.5,2.0
# From MPEC 2020-N31
C/2019 S4 (Lemmon),e,92.0251,63.1659,71.3591,237.7242,0.0002689,0.98552194,0.0000,04/07.9536/2020,2000,g 11.0,4.0
# From MPEC 2020-N31
A/2019 T1,e,120.8694,6.9517,91.0170,38.26360,0.0041641,0.88810093,359.5412,09/26.0/2020,2000,g 13.0,2.0
# From MPEC 2020-N31
C/2019 T2 (Lemmon),e,111.4749,155.6371,239.3837,2582,0.0000075,0.99897507,0.0000,04/22.2800/2021,2000,g  9.0,4.0
# From MPEC 2020-N31
C/2019 T3 (ATLAS),e,121.8626,139.5192,112.2629,4378,0.0000034,0.99864176,0.0000,03/02.5641/2021,2000,g  6.8,4.0
# From MPEC 2020-N31
A/2019 U5,h,03/30.3794/2023,113.5180,2.6604,181.5889,1.000228,3.622090,2000,10.0,2.0
# From MPEC 2020-N31
C/2019 U6 (Lemmon),e,61.0005,235.7049,329.6609,431.7951,0.0001098,0.99788269,0.0000,06/18.8220/2020,2000,g 10.0,4.0
# From MPEC 2020-N31
C/2019 Y1 (ATLAS),e,73.3507,31.3653,57.4961,231.0279,0.0002807,0.99637353,0.0000,03/15.5588/2020,2000,g 13.7,4.0
# From MPC118843
P/2019 M2 (ATLAS),e,12.2821,307.5966,332.5571,3.026359,0.1872076,0.64840769,86.3661,09/26.0/2020,2000,g 21.2,4.0
# From MPC118095
C/2019 M3 (ATLAS),h,01/02.8651/2019,99.4532,154.8976,87.9391,1.001593,2.418763,2000,12.2,4.0
# From MPC119997
C/2019 N1 (ATLAS),e,82.4268,13.5729,193.4460,34958,0.0000002,0.99995124,0.0000,12/01.7889/2020,2000,g  7.5,4.0
# From MPEC 2020-P41
C/2019 NJ3 (Lemmon),h,10/22.2576/2020,99.4385,142.4550,246.8374,1.000820,4.361672,2000,9.0,4.0
# From MPEC 2020-AA5
A/2019 O2,e,93.2859,48.3249,129.6752,57.38794,0.0022671,0.83130114,357.9055,09/26.0/2020,2000,g  9.5,2.0
# From MPC118843
A/2019 O3,h,03/07.8121/2021,89.8123,300.3789,60.0439,1.001928,8.818574,2000,10.0,2.0
# From MPC117072
A/2019 O4,e,115.0856,354.9195,61.8228,32.84896,0.0052351,0.88904800,1.1988,09/26.0/2020,2000,g 15.5,2.0
# From MPEC 2020-AA5
A/2019 Q1,h,07/19.9171/2020,155.7201,42.3374,55.9482,1.000454,4.996707,2000,12.5,2.0
# From MPC117072
A/2019 Q2,e,159.0201,188.0409,176.2988,57.50428,0.0022602,0.97814530,0.0000,07/22.3375/2019,2000,g 18.0,2.0
# From MPC117072
C/2019 Q3 (PANSTARRS),h,08/21.2532/2018,65.5278,151.3241,152.6698,1.004336,7.252467,2000,8.5,4.0
# From MPC117072
P/2019 S2 (PANSTARRS),e,10.4731,93.1281,216.8226,4.735625,0.0956397,0.20681140,55.7250,09/26.0/2020,2000,g 13.5,4.0
# From MPC118096
P/2019 S3 (PANSTARRS),e,8.6932,150.1616,212.9762,3.414542,0.1562088,0.47087038,61.9885,09/26.0/2020,2000,g 18.3,4.0
# From MPEC 2020-AA5
A/2019 S4,e,92.0238,63.1647,71.3607,235.3485,0.0002730,0.98537614,0.0000,04/07.9632/2020,2000,g 14.5,2.0
# From MPC118843
A/2019 T1,e,120.8694,6.9517,91.0174,38.26069,0.0041646,0.88809273,359.5411,09/26.0/2020,2000,g 13.0,2.0
# From MPEC 2020-AA5
A/2019 T2,e,111.4734,155.6384,239.3881,2580,0.0000075,0.99897467,0.0000,04/22.2660/2021,2000,g 12.5,2.0
